{
  "type": "FeatureCollection",
  "features": [
    {
      "type": "Feature",
      "properties": {
        "norad_id": 44873,
        "name": "CSG-1",
        "group": "resource",
        "lat": -78.21702591945392,
        "lon": -63.75058603987763,
        "alt_km": 630.7856019499313,
        "timestamp": "2025-12-02T08:59:32.377393+00:00",
        "meta_object_name": "CSG-1",
        "meta_object_id": "2019-092A",
        "meta_epoch": "2025-12-02T04:34:36.918912",
        "meta_mean_motion": 14.82171769,
        "meta_eccentricity": 0.0001381,
        "meta_inclination": 97.8806,
        "meta_ra_of_asc_node": 157.6735,
        "meta_arg_of_pericenter": 83.3772,
        "meta_mean_anomaly": 276.7598,
        "meta_ephemeris_type": 0,
        "meta_classification_type": "U",
        "meta_norad_cat_id": 44873,
        "meta_element_set_no": 999,
        "meta_rev_at_epoch": 32229,
        "meta_bstar": 0.00010589,
        "meta_mean_motion_dot": 7.91e-06,
        "meta_mean_motion_ddot": 0,
        "tle_line1": "1 44873U 19092A   25336.19070508  .00000791  00000+0  10589-3 0  9998",
        "tle_line2": "2 44873  97.8806 157.6735 0001381  83.3772 276.7598 14.82171769322291"
      },
      "geometry": {
        "type": "Point",
        "coordinates": [
          -63.75058603987763,
          -78.21702591945392
        ]
      }
    },
    {
      "type": "Feature",
      "properties": {
        "norad_id": 46277,
        "name": "NEMO-HD",
        "group": "resource",
        "lat": 58.3274750760673,
        "lon": 23.743064487574102,
        "alt_km": 438.9465812129429,
        "timestamp": "2025-12-02T08:59:32.377404+00:00",
        "meta_object_name": "NEMO-HD",
        "meta_object_id": "2020-061F",
        "meta_epoch": "2025-12-02T04:03:30.182112",
        "meta_mean_motion": 15.39991532,
        "meta_eccentricity": 0.0002372,
        "meta_inclination": 97.2235,
        "meta_ra_of_asc_node": 35.4039,
        "meta_arg_of_pericenter": 70.0198,
        "meta_mean_anomaly": 290.1303,
        "meta_ephemeris_type": 0,
        "meta_classification_type": "U",
        "meta_norad_cat_id": 46277,
        "meta_element_set_no": 999,
        "meta_rev_at_epoch": 29161,
        "meta_bstar": 0.00032544,
        "meta_mean_motion_dot": 0.00012906,
        "meta_mean_motion_ddot": 0,
        "tle_line1": "1 46277U 20061F   25336.16909933  .00012906  00000+0  32544-3 0  9992",
        "tle_line2": "2 46277  97.2235  35.4039 0002372  70.0198 290.1303 15.39991532291613"
      },
      "geometry": {
        "type": "Point",
        "coordinates": [
          23.743064487574102,
          58.3274750760673
        ]
      }
    },
    {
      "type": "Feature",
      "properties": {
        "norad_id": 46984,
        "name": "SENTINEL-6A",
        "group": "resource",
        "lat": -6.3210504941751395,
        "lon": 6.660043808385213,
        "alt_km": 1339.6142019080462,
        "timestamp": "2025-12-02T08:59:32.377414+00:00",
        "meta_object_name": "SENTINEL-6A",
        "meta_object_id": "2020-086A",
        "meta_epoch": "2025-12-02T00:31:27.282720",
        "meta_mean_motion": 12.8092996,
        "meta_eccentricity": 0.0007731,
        "meta_inclination": 66.0388,
        "meta_ra_of_asc_node": 184.5694,
        "meta_arg_of_pericenter": 269.1438,
        "meta_mean_anomaly": 90.8692,
        "meta_ephemeris_type": 0,
        "meta_classification_type": "U",
        "meta_norad_cat_id": 46984,
        "meta_element_set_no": 999,
        "meta_rev_at_epoch": 23507,
        "meta_bstar": 0.00011631,
        "meta_mean_motion_dot": -3.4e-07,
        "meta_mean_motion_ddot": 0,
        "tle_line1": "1 46984U 20086A   25336.02184355 -.00000034  00000+0  11631-3 0  9996",
        "tle_line2": "2 46984  66.0388 184.5694 0007731 269.1438  90.8692 12.80929960235079"
      },
      "geometry": {
        "type": "Point",
        "coordinates": [
          6.660043808385213,
          -6.3210504941751395
        ]
      }
    },
    {
      "type": "Feature",
      "properties": {
        "norad_id": 48079,
        "name": "GAOFEN-12 02",
        "group": "resource",
        "lat": -36.66166454176632,
        "lon": 144.4342647162233,
        "alt_km": 633.8362045852418,
        "timestamp": "2025-12-02T08:59:32.377425+00:00",
        "meta_object_name": "GAOFEN-12 02",
        "meta_object_id": "2021-026A",
        "meta_epoch": "2025-12-02T04:46:18.679584",
        "meta_mean_motion": 14.80654085,
        "meta_eccentricity": 0.0003216,
        "meta_inclination": 97.9848,
        "meta_ra_of_asc_node": 330.2564,
        "meta_arg_of_pericenter": 122.251,
        "meta_mean_anomaly": 237.9014,
        "meta_ephemeris_type": 0,
        "meta_classification_type": "U",
        "meta_norad_cat_id": 48079,
        "meta_element_set_no": 999,
        "meta_rev_at_epoch": 25261,
        "meta_bstar": 9.17e-05,
        "meta_mean_motion_dot": 6.52e-06,
        "meta_mean_motion_ddot": 0,
        "tle_line1": "1 48079U 21026A   25336.19882731  .00000652  00000+0  91700-4 0  9990",
        "tle_line2": "2 48079  97.9848 330.2564 0003216 122.2510 237.9014 14.80654085252616"
      },
      "geometry": {
        "type": "Point",
        "coordinates": [
          144.4342647162233,
          -36.66166454176632
        ]
      }
    },
    {
      "type": "Feature",
      "properties": {
        "norad_id": 48268,
        "name": "PLEIADES NEO 3",
        "group": "resource",
        "lat": -65.30415362583739,
        "lon": -148.59831604981989,
        "alt_km": 632.0110871774077,
        "timestamp": "2025-12-02T08:59:32.377437+00:00",
        "meta_object_name": "PLEIADES NEO 3",
        "meta_object_id": "2021-034A",
        "meta_epoch": "2025-12-02T04:38:30.313824",
        "meta_mean_motion": 14.81676504,
        "meta_eccentricity": 0.0001214,
        "meta_inclination": 97.8948,
        "meta_ra_of_asc_node": 48.7857,
        "meta_arg_of_pericenter": 96.3611,
        "meta_mean_anomaly": 263.774,
        "meta_ephemeris_type": 0,
        "meta_classification_type": "U",
        "meta_norad_cat_id": 48268,
        "meta_element_set_no": 999,
        "meta_rev_at_epoch": 24848,
        "meta_bstar": -9.2335e-07,
        "meta_mean_motion_dot": -5.9e-07,
        "meta_mean_motion_ddot": 0,
        "tle_line1": "1 48268U 21034A   25336.19340641 -.00000059  00000+0 -92335-6 0  9998",
        "tle_line2": "2 48268  97.8948  48.7857 0001214  96.3611 263.7740 14.81676504248485"
      },
      "geometry": {
        "type": "Point",
        "coordinates": [
          -148.59831604981989,
          -65.30415362583739
        ]
      }
    },
    {
      "type": "Feature",
      "properties": {
        "norad_id": 49070,
        "name": "PLEIADES NEO 4",
        "group": "resource",
        "lat": 65.24716649113971,
        "lon": 31.444338163855058,
        "alt_km": 616.8431178126093,
        "timestamp": "2025-12-02T08:59:32.377447+00:00",
        "meta_object_name": "PLEIADES NEO 4",
        "meta_object_id": "2021-073E",
        "meta_epoch": "2025-12-01T19:43:38.054208",
        "meta_mean_motion": 14.81672559,
        "meta_eccentricity": 0.0001327,
        "meta_inclination": 97.8949,
        "meta_ra_of_asc_node": 48.4151,
        "meta_arg_of_pericenter": 92.6256,
        "meta_mean_anomaly": 267.5109,
        "meta_ephemeris_type": 0,
        "meta_classification_type": "U",
        "meta_norad_cat_id": 49070,
        "meta_element_set_no": 999,
        "meta_rev_at_epoch": 23214,
        "meta_bstar": -1.3131e-06,
        "meta_mean_motion_dot": -6.2e-07,
        "meta_mean_motion_ddot": 0,
        "tle_line1": "1 49070U 21073E   25335.82196822 -.00000062  00000+0 -13131-5 0  9992",
        "tle_line2": "2 49070  97.8949  48.4151 0001327  92.6256 267.5109 14.81672559232144"
      },
      "geometry": {
        "type": "Point",
        "coordinates": [
          31.444338163855058,
          65.24716649113971
        ]
      }
    },
    {
      "type": "Feature",
      "properties": {
        "norad_id": 49260,
        "name": "LANDSAT 9",
        "group": "resource",
        "lat": -78.58995561060905,
        "lon": 90.3127803312276,
        "alt_km": 710.6129562055012,
        "timestamp": "2025-12-02T08:59:32.377457+00:00",
        "meta_object_name": "LANDSAT 9",
        "meta_object_id": "2021-088A",
        "meta_epoch": "2025-12-02T04:25:27.420960",
        "meta_mean_motion": 14.57112183,
        "meta_eccentricity": 0.0001087,
        "meta_inclination": 98.2105,
        "meta_ra_of_asc_node": 44.4476,
        "meta_arg_of_pericenter": 92.5129,
        "meta_mean_anomaly": 267.6194,
        "meta_ephemeris_type": 0,
        "meta_classification_type": "U",
        "meta_norad_cat_id": 49260,
        "meta_element_set_no": 999,
        "meta_rev_at_epoch": 22231,
        "meta_bstar": 0.00013153,
        "meta_mean_motion_dot": 5.47e-06,
        "meta_mean_motion_ddot": 0,
        "tle_line1": "1 49260U 21088A   25336.18434515  .00000547  00000+0  13153-3 0  9991",
        "tle_line2": "2 49260  98.2105  44.4476 0001087  92.5129 267.6194 14.57112183222319"
      },
      "geometry": {
        "type": "Point",
        "coordinates": [
          90.3127803312276,
          -78.58995561060905
        ]
      }
    }
  ]
}